BREEZE-M R/B            
1 38746U 12044C   18231.54999943  .00002673  00000-0  16954-3 0  9992
2 38746  49.6984 291.6764 2420410 262.3903  69.7994 10.47347901216710
BREEZE-M DEB            
1 38880U 12044M   18225.18705805  .13909374  12439-4  38460-3 0  9993
2 38880  49.7120 211.5407 0019957 293.3660  66.5241 16.43395231265107
BREEZE-M DEB            
1 38881U 12044N   18232.17299180  .00141890  11987-4  58588-3 0  9992
2 38881  50.3909 329.9440 0618787  49.1621 316.1298 14.71772981258425
BREEZE-M DEB            
1 38884U 12044R   18230.68690556  .00003979  22831-5  13244-3 0  9997
2 38884  50.0124  99.3967 2321356 342.0355  11.0087 10.78536909225039
BREEZE-M DEB            
1 38888U 12044V   18231.64307522  .00011621  49091-5  24472-3 0  9991
2 38888  50.0310 271.1335 1855265  63.7545 314.1901 11.80898336237884
BREEZE-M DEB            
1 38921U 12044BE  18231.56784900  .00042364  57341-5  59225-3 0  9998
2 38921  50.1986 131.6674 1558317 125.1235 250.5822 12.48693097240820
BREEZE-M DEB            
1 38922U 12044BF  18231.50299441  .00005731  36035-5  16531-3 0  9991
2 38922  50.0600 265.0852 2160557 125.9029 256.2159 11.13637857229789
BREEZE-M DEB            
1 38926U 12044BK  18231.43522099  .00008449  40453-5  17425-3 0  9996
2 38926  50.0172  14.4858 1637849 279.4144  62.5942 12.27652344243344
BREEZE-M DEB            
1 38948U 12044CH  18231.18864935  .00019928  48388-5  39763-3 0  9998
2 38948  50.0685 148.0872 1743539 153.9201 216.1168 12.04634687240351
BREEZE-M DEB            
1 38957U 12044CQ  18231.54592527  .00019884  51336-5  36312-3 0  9998
2 38957  50.0097 271.8517 1778735  67.8934 310.0765 11.98409648236925
BREEZE-M DEB            
1 38960U 12044CT  18231.55579115  .00006306  33613-5  15139-3 0  9998
2 38960  50.1395  64.5486 1925608 275.3163  63.2152 11.64701463233956
BREEZE-M DEB            
1 38961U 12044CU  18231.17391023  .00019992  48156-5  38910-3 0  9992
2 38961  50.0907 138.1787 1741386 156.8804 212.1137 12.05426744240623
BREEZE-M DEB            
1 38971U 12044DE  18228.88909440  .00020867  42580-5  38653-3 0  9997
2 38971  50.0911  43.2434 1615876 235.8915 107.8160 12.32753119242008
